start=new Date('2023-03-28T00:00:00.000Z').valueOf();
sats=[{"PERIOD":"95.435","APOAPSIS":"540.459","TLE_LINE1":"1 52689U 22053AK  23086.92203031  .00020337  00000-0  12909-2 0  9999","OBJECT_ID":"2022-053AK","OBJECT_TYPE":"PAYLOAD","BSTAR":"0.00129090000000","REF_FRAME":"TEME","DECAY_DATE":null,"TLE_LINE2":"2 52689  53.2147 302.4080 0001196  97.5307 262.5821 15.08877263 48442","EPHEMERIS_TYPE":"0","GP_ID":"228992805","OBJECT_NAME":"STARLINK-4078","MEAN_ELEMENT_THEORY":"SGP4","LAUNCH_DATE":"2022-05-18","MEAN_MOTION":"15.08877263","NORAD_CAT_ID":"52689","TIME_SYSTEM":"UTC","FILE":"3872915","PERIAPSIS":"538.804","EPOCH":"2023-03-27T22:07:43.418784","REV_AT_EPOCH":"4844","MEAN_MOTION_DDOT":"0.0000000000000","CLASSIFICATION_TYPE":"U","SEMIMAJOR_AXIS":"6917.766","RA_OF_ASC_NODE":"302.4080","SITE":"AFETR","INCLINATION":"53.2147","RCS_SIZE":"LARGE","CENTER_NAME":"EARTH","MEAN_ANOMALY":"262.5821","COUNTRY_CODE":"US","ELEMENT_SET_NO":"999","ECCENTRICITY":"0.00011960","MEAN_MOTION_DOT":"0.00020337","ARG_OF_PERICENTER":"97.5307"},{"LAUNCH_DATE":"2022-05-18","MEAN_MOTION":"15.08859530","FILE":"3872915","NORAD_CAT_ID":"52690","TIME_SYSTEM":"UTC","REV_AT_EPOCH":"4840","PERIAPSIS":"538.749","EPOCH":"2023-03-27T20:58:49.812096","CLASSIFICATION_TYPE":"U","MEAN_MOTION_DDOT":"0.0000000000000","RA_OF_ASC_NODE":"302.6184","SITE":"AFETR","SEMIMAJOR_AXIS":"6917.821","INCLINATION":"53.2162","RCS_SIZE":"LARGE","CENTER_NAME":"EARTH","ELEMENT_SET_NO":"999","ECCENTRICITY":"0.00013540","MEAN_ANOMALY":"268.6714","COUNTRY_CODE":"US","ARG_OF_PERICENTER":"91.4434","MEAN_MOTION_DOT":"0.00009586","PERIOD":"95.436","APOAPSIS":"540.622","TLE_LINE1":"1 52690U 22053AL  23086.87418764  .00009586  00000-0  61921-3 0  9998","OBJECT_ID":"2022-053AL","OBJECT_TYPE":"PAYLOAD","BSTAR":"0.00061921000000","REF_FRAME":"TEME","TLE_LINE2":"2 52690  53.2162 302.6184 0001354  91.4434 268.6714 15.08859530 48409","DECAY_DATE":null,"EPHEMERIS_TYPE":"0","GP_ID":"228993055","OBJECT_NAME":"STARLINK-4035","MEAN_ELEMENT_THEORY":"SGP4"},{"ELEMENT_SET_NO":"999","ECCENTRICITY":"0.00013110","MEAN_ANOMALY":"256.1233","COUNTRY_CODE":"US","ARG_OF_PERICENTER":"103.9904","MEAN_MOTION_DOT":"0.00002899","RA_OF_ASC_NODE":"302.3339","SITE":"AFETR","SEMIMAJOR_AXIS":"6920.414","RCS_SIZE":"LARGE","INCLINATION":"53.2157","CENTER_NAME":"EARTH","REV_AT_EPOCH":"4844","EPOCH":"2023-03-27T21:39:59.515488","PERIAPSIS":"541.372","CLASSIFICATION_TYPE":"U","MEAN_MOTION_DDOT":"0.0000000000000","LAUNCH_DATE":"2022-05-18","MEAN_MOTION":"15.08011433","FILE":"3872915","NORAD_CAT_ID":"52691","TIME_SYSTEM":"UTC","EPHEMERIS_TYPE":"0","GP_ID":"228994305","OBJECT_NAME":"STARLINK-3945","MEAN_ELEMENT_THEORY":"SGP4","TLE_LINE2":"2 52691  53.2157 302.3339 0001311 103.9904 256.1233 15.08011433 48441","DECAY_DATE":null,"TLE_LINE1":"1 52691U 22053AM  23086.90277217  .00002899  00000-0  20461-3 0  9993","BSTAR":"0.00020461000000","OBJECT_TYPE":"PAYLOAD","OBJECT_ID":"2022-053AM","REF_FRAME":"TEME","PERIOD":"95.490","APOAPSIS":"543.186"},{"RCS_SIZE":"LARGE","INCLINATION":"53.2152","CENTER_NAME":"EARTH","SEMIMAJOR_AXIS":"6917.821","RA_OF_ASC_NODE":"302.6730","SITE":"AFETR","MEAN_MOTION_DOT":"0.00003955","ARG_OF_PERICENTER":"131.6755","MEAN_ANOMALY":"228.4355","COUNTRY_CODE":"US","ELEMENT_SET_NO":"999","ECCENTRICITY":"0.00013710","TIME_SYSTEM":"UTC","NORAD_CAT_ID":"52692","FILE":"3872915","LAUNCH_DATE":"2022-05-18","MEAN_MOTION":"15.08859530","MEAN_MOTION_DDOT":"0.0000000000000","CLASSIFICATION_TYPE":"U","PERIAPSIS":"538.737","EPOCH":"2023-03-27T20:42:55.495584","REV_AT_EPOCH":"4843","DECAY_DATE":null,"TLE_LINE2":"2 52692  53.2152 302.6730 0001371 131.6755 228.4355 15.08859530 48437","MEAN_ELEMENT_THEORY":"SGP4","EPHEMERIS_TYPE":"0","GP_ID":"228994056","OBJECT_NAME":"STARLINK-3993","APOAPSIS":"540.634","PERIOD":"95.436","OBJECT_TYPE":"PAYLOAD","BSTAR":"0.00026629000000","OBJECT_ID":"2022-053AN","REF_FRAME":"TEME","TLE_LINE1":"1 52692U 22053AN  23086.86314231  .00003955  00000-0  26629-3 0  9993"},{"OBJECT_ID":"2022-053AP","OBJECT_TYPE":"PAYLOAD","BSTAR":"0.00130010000000","REF_FRAME":"TEME","TLE_LINE1":"1 52693U 22053AP  23086.91098720  .00020486  00000-0  13001-2 0  9999","APOAPSIS":"540.325","PERIOD":"95.435","MEAN_ELEMENT_THEORY":"SGP4","EPHEMERIS_TYPE":"0","GP_ID":"228993305","OBJECT_NAME":"STARLINK-3946","DECAY_DATE":null,"TLE_LINE2":"2 52693  53.2145 302.4613 0001010 121.3959 238.7133 15.08879011 48445","MEAN_MOTION_DDOT":"0.0000000000000","CLASSIFICATION_TYPE":"U","PERIAPSIS":"538.927","EPOCH":"2023-03-27T21:51:49.294080","REV_AT_EPOCH":"4844","TIME_SYSTEM":"UTC","NORAD_CAT_ID":"52693","FILE":"3872915","LAUNCH_DATE":"2022-05-18","MEAN_MOTION":"15.08879011","MEAN_MOTION_DOT":"0.00020486","ARG_OF_PERICENTER":"121.3959","MEAN_ANOMALY":"238.7133","COUNTRY_CODE":"US","ELEMENT_SET_NO":"999","ECCENTRICITY":"0.00010100","RCS_SIZE":"LARGE","INCLINATION":"53.2145","CENTER_NAME":"EARTH","SEMIMAJOR_AXIS":"6917.761","RA_OF_ASC_NODE":"302.4613","SITE":"AFETR"},{"TLE_LINE1":"1 52694U 22053AQ  23086.85946729  .00010420  00000-0  67141-3 0  9996","OBJECT_TYPE":"PAYLOAD","BSTAR":"0.00067141000000","OBJECT_ID":"2022-053AQ","REF_FRAME":"TEME","PERIOD":"95.436","APOAPSIS":"540.401","EPHEMERIS_TYPE":"0","OBJECT_NAME":"STARLINK-4072","GP_ID":"228993554","MEAN_ELEMENT_THEORY":"SGP4","TLE_LINE2":"2 52694  53.2160 302.6865 0001037  60.6891 299.4204 15.08860135 48432","DECAY_DATE":null,"REV_AT_EPOCH":"4843","PERIAPSIS":"538.966","EPOCH":"2023-03-27T20:37:37.973856","CLASSIFICATION_TYPE":"U","MEAN_MOTION_DDOT":"0.0000000000000","LAUNCH_DATE":"2022-05-18","MEAN_MOTION":"15.08860135","FILE":"3872915","NORAD_CAT_ID":"52694","TIME_SYSTEM":"UTC","ELEMENT_SET_NO":"999","ECCENTRICITY":"0.00010370","MEAN_ANOMALY":"299.4204","COUNTRY_CODE":"US","ARG_OF_PERICENTER":"60.6891","MEAN_MOTION_DOT":"0.00010420","RA_OF_ASC_NODE":"302.6865","SITE":"AFETR","SEMIMAJOR_AXIS":"6917.819","RCS_SIZE":"LARGE","INCLINATION":"53.2160","CENTER_NAME":"EARTH"},{"ARG_OF_PERICENTER":"94.2963","MEAN_MOTION_DOT":"0.00021178","ELEMENT_SET_NO":"999","ECCENTRICITY":"0.00010540","MEAN_ANOMALY":"265.8150","COUNTRY_CODE":"US","INCLINATION":"53.2152","RCS_SIZE":"LARGE","CENTER_NAME":"EARTH","RA_OF_ASC_NODE":"307.4334","SITE":"AFETR","SEMIMAJOR_AXIS":"6917.772","CLASSIFICATION_TYPE":"U","MEAN_MOTION_DDOT":"0.0000000000000","REV_AT_EPOCH":"4838","EPOCH":"2023-03-27T22:00:29.377152","PERIAPSIS":"538.908","FILE":"3872915","NORAD_CAT_ID":"52695","TIME_SYSTEM":"UTC","LAUNCH_DATE":"2022-05-18","MEAN_MOTION":"15.08875339","MEAN_ELEMENT_THEORY":"SGP4","EPHEMERIS_TYPE":"0","OBJECT_NAME":"STARLINK-4041","GP_ID":"228993806","TLE_LINE2":"2 52695  53.2152 307.4334 0001054  94.2963 265.8150 15.08875339 48383","DECAY_DATE":null,"BSTAR":"0.00134340000000","OBJECT_TYPE":"PAYLOAD","OBJECT_ID":"2022-053AR","REF_FRAME":"TEME","TLE_LINE1":"1 52695U 22053AR  23086.91700668  .00021178  00000-0  13434-2 0  9991","PERIOD":"95.435","APOAPSIS":"540.367"},{"REV_AT_EPOCH":"4844","PERIAPSIS":"538.858","EPOCH":"2023-03-27T21:57:07.335936","CLASSIFICATION_TYPE":"U","MEAN_MOTION_DDOT":"0.0000000000000","LAUNCH_DATE":"2022-05-18","MEAN_MOTION":"15.08888970","FILE":"3872915","TIME_SYSTEM":"UTC","NORAD_CAT_ID":"52696","ELEMENT_SET_NO":"999","ECCENTRICITY":"0.00010660","MEAN_ANOMALY":"272.6173","COUNTRY_CODE":"US","ARG_OF_PERICENTER":"87.4941","MEAN_MOTION_DOT":"0.00027641","RA_OF_ASC_NODE":"302.4432","SITE":"AFETR","SEMIMAJOR_AXIS":"6917.731","RCS_SIZE":"LARGE","INCLINATION":"53.2151","CENTER_NAME":"EARTH","TLE_LINE1":"1 52696U 22053AS  23086.91466824  .00027641  00000-0  17457-2 0  9995","OBJECT_ID":"2022-053AS","OBJECT_TYPE":"PAYLOAD","BSTAR":"0.00174570000000","REF_FRAME":"TEME","APOAPSIS":"540.333","PERIOD":"95.434","EPHEMERIS_TYPE":"0","GP_ID":"228994556","OBJECT_NAME":"STARLINK-4025","MEAN_ELEMENT_THEORY":"SGP4","TLE_LINE2":"2 52696  53.2151 302.4432 0001066  87.4941 272.6173 15.08888970 48443","DECAY_DATE":null},{"DECAY_DATE":null,"TLE_LINE2":"2 52697  53.2160 307.3948 0001105  97.2617 262.8501 15.08884681 48387","MEAN_ELEMENT_THEORY":"SGP4","EPHEMERIS_TYPE":"0","OBJECT_NAME":"STARLINK-4018","GP_ID":"228992806","APOAPSIS":"540.373","PERIOD":"95.435","OBJECT_TYPE":"PAYLOAD","BSTAR":"0.00145980000000","OBJECT_ID":"2022-053AT","REF_FRAME":"TEME","TLE_LINE1":"1 52697U 22053AT  23086.92436323  .00023049  00000-0  14598-2 0  9999","INCLINATION":"53.2160","RCS_SIZE":"LARGE","CENTER_NAME":"EARTH","SEMIMAJOR_AXIS":"6917.744","RA_OF_ASC_NODE":"307.3948","SITE":"AFETR","MEAN_MOTION_DOT":"0.00023049","ARG_OF_PERICENTER":"97.2617","MEAN_ANOMALY":"262.8501","COUNTRY_CODE":"US","ELEMENT_SET_NO":"999","ECCENTRICITY":"0.00011050","TIME_SYSTEM":"UTC","NORAD_CAT_ID":"52697","FILE":"3872915","LAUNCH_DATE":"2022-05-18","MEAN_MOTION":"15.08884681","MEAN_MOTION_DDOT":"0.0000000000000","CLASSIFICATION_TYPE":"U","EPOCH":"2023-03-27T22:11:04.983072","PERIAPSIS":"538.844","REV_AT_EPOCH":"4838"},{"BSTAR":"0.00175450000000","OBJECT_TYPE":"PAYLOAD","OBJECT_ID":"2022-053AU","REF_FRAME":"TEME","TLE_LINE1":"1 52698U 22053AU  23086.86821771  .00027775  00000-0  17545-2 0  9993","PERIOD":"95.435","APOAPSIS":"540.397","MEAN_ELEMENT_THEORY":"SGP4","EPHEMERIS_TYPE":"0","OBJECT_NAME":"STARLINK-4030","GP_ID":"228993056","DECAY_DATE":null,"TLE_LINE2":"2 52698  53.2160 307.6400 0001116  86.2096 273.9023 15.08879249 48369","MEAN_MOTION_DDOT":"0.0000000000000","CLASSIFICATION_TYPE":"U","PERIAPSIS":"538.853","EPOCH":"2023-03-27T20:50:14.010144","REV_AT_EPOCH":"4836","TIME_SYSTEM":"UTC","NORAD_CAT_ID":"52698","FILE":"3872915","LAUNCH_DATE":"2022-05-18","MEAN_MOTION":"15.08879249","MEAN_MOTION_DOT":"0.00027775","ARG_OF_PERICENTER":"86.2096","MEAN_ANOMALY":"273.9023","COUNTRY_CODE":"US","ELEMENT_SET_NO":"999","ECCENTRICITY":"0.00011160","RCS_SIZE":"LARGE","INCLINATION":"53.2160","CENTER_NAME":"EARTH","SEMIMAJOR_AXIS":"6917.760","RA_OF_ASC_NODE":"307.6400","SITE":"AFETR"}];
